GLOBALSTAR M068 [-]     
1 32266U 07048D   24069.84734006 -.00000053  00000+0  28298-3 0  9991
2 32266  51.9873 277.6716 0001010 138.5787 245.5073 12.62781469758890
GLOBALSTAR M079 [+]     
1 37188U 10054A   24070.00318024 -.00000075  00000+0  16256-3 0  9993
2 37188  52.0027 112.8367 0000408  85.3983 348.9084 12.62267273618516
GLOBALSTAR M074 [+]     
1 37189U 10054B   24070.41213694 -.00000074  00000+0  16537-3 0  9997
2 37189  52.0006 110.9872 0000493 121.1796 251.9229 12.62266130618569
GLOBALSTAR M076 [+]     
1 37190U 10054C   24070.35952771 -.00000069  00000+0  19223-3 0  9997
2 37190  52.0018 111.2769 0000877  88.2117 285.2024 12.62275384618563
GLOBALSTAR M077 [+]     
1 37191U 10054D   24070.20262904 -.00000101  00000+0  16009-4 0  9991
2 37191  52.0067  68.4751 0000433 107.1520 332.7368 12.62270161619297
GLOBALSTAR M075 [+]     
1 37192U 10054E   24070.53110410 -.00000076  00000+0  15224-3 0  9990
2 37192  51.9937 153.2699 0000514 105.9730 267.3952 12.62271441617826
GLOBALSTAR M073 [+]     
1 37193U 10054F   24070.48661970 -.00000098  00000+0  31335-4 0  9993
2 37193  52.0057  66.8657 0000454  87.3834  85.1919 12.62262444619325
GLOBALSTAR M083 [+]     
1 37739U 11033A   24069.93109802 -.00000093  00000+0  59453-4 0  9992
2 37739  51.9885  17.9240 0000253  55.9728  50.8112 12.62266282588225
GLOBALSTAR M088 [+]     
1 37740U 11033B   24070.07644972 -.00000072  00000+0  17937-3 0  9990
2 37740  51.9724 283.3661 0000673  70.8821  97.2816 12.62265861584078
GLOBALSTAR M091 [+]     
1 37741U 11033C   24069.74125560 -.00000095  00000+0  50240-4 0  9990
2 37741  51.9976 247.1093 0000626  76.7064 307.6441 12.62272245584534
GLOBALSTAR M085 [+]     
1 37742U 11033D   24070.53216516 -.00000108  00000+0 -22976-4 0  9993
2 37742  51.9853 196.1506 0000533  97.3873 342.0018 12.62268390585636
GLOBALSTAR M081 [+]     
1 37743U 11033E   24069.52872538 -.00000118  00000+0 -78339-4 0  9998
2 37743  51.9942 201.7057 0000667  81.0179 356.9055 12.62270395585168
GLOBALSTAR M089 [+]     
1 37744U 11033F   24069.55443517 -.00000092  00000+0  67511-4 0  9993
2 37744  51.9921 155.9451 0000994  99.2901 274.5013 12.62272017586265
GLOBALSTAR M084 [+]     
1 38040U 11080A   24070.12304809 -.00000095  00000+0  46571-4 0  9996
2 38040  52.0034  21.2525 0000718  89.1956 290.2428 12.62271734564346
GLOBALSTAR M080 [+]     
1 38041U 11080B   24069.57623293 -.00000107  00000+0 -20432-4 0  9998
2 38041  52.0083  24.3619 0000877  78.5569  94.0394 12.62269587564117
GLOBALSTAR M082 [+]     
1 38042U 11080C   24070.22133284 -.00000067  00000+0  20470-3 0  9994
2 38042  52.0100 337.7984 0000029  94.8380  70.8465 12.62266591565074
GLOBALSTAR M092 [+]     
1 38043U 11080D   24070.17605771 -.00000113  00000+0 -49600-4 0  9994
2 38043  52.0086  68.2854 0000532 119.8315 319.4909 12.62276776563568
GLOBALSTAR M090 [+]     
1 38044U 11080E   24070.16804400 -.00000065  00000+0  21889-3 0  9997
2 38044  51.9908 332.3656 0000380  66.1654  98.2900 12.62266887565057
GLOBALSTAR M086 [+]     
1 38045U 11080F   24069.48330280 -.00000068  00000+0  19803-3 0  9997
2 38045  51.9920 334.9667 0001339  33.6841 137.0598 12.62268059564871
GLOBALSTAR M097 [+]     
1 39072U 13005A   24069.70971385 -.00000096  00000+0  42003-4 0  9999
2 39072  52.0026 248.3507 0000684  74.9649 285.1293 12.62261646512154
GLOBALSTAR M093 [+]     
1 39073U 13005B   24069.76234261 -.00000100  00000+0  20597-4 0  9991
2 39073  51.9788 242.2360 0000637  70.2902 289.8033 12.62261968512113
GLOBALSTAR M094 [+]     
1 39074U 13005C   24070.47505882 -.00000079  00000+0  13918-3 0  9995
2 39074  51.9949 153.9837 0000439  97.7797 262.3120 12.62263468513836
GLOBALSTAR M096 [+]     
1 39075U 13005D   24069.61719721 -.00000111  00000+0 -39157-4 0  9991
2 39075  52.0058 204.7461 0000569  84.0026 276.0905 12.62273297512974
GLOBALSTAR M078 [+]     
1 39076U 13005E   24069.90799579 -.00000073  00000+0  17199-3 0  9990
2 39076  51.9868 289.0087 0000551 185.5995 174.4865 12.62261116511281
GLOBALSTAR M095 [+]     
1 39077U 13005F   24070.32980527 -.00000073  00000+0  16984-3 0  9995
2 39077  51.9791 285.1474 0000181  58.9385 301.1499 12.62264427511559
GLOBALSTAR M087 [+]     
1 52888U 22064A   24069.50305200 -.00000115  00000+0  25052-4 0  9996
2 52888  51.9746 195.9731 0010201 111.0363 249.1630 13.37566891 84184
